{"type": "FeatureCollection", "features": [ {"type": "Feature", "properties": {"norad_id": 28659, "name": "DIRECTV 8", "group": "intelsat", "lat": -0.022692217251168375, "lon": -56.28908547645009, "alt_km": 35775.814091563065, "timestamp": "2025-12-13T22:39:29.375993+00:00", "meta": {"OBJECT_NAME": "DIRECTV 8", "OBJECT_ID": "2005-019A", "EPOCH": "2025-12-13T07:09:25.060608", "MEAN_MOTION": 1.00271994, "ECCENTRICITY": 0.00029881, "INCLINATION": 0.0229, "RA_OF_ASC_NODE": 66.6292, "ARG_OF_PERICENTER": 200.7634, "MEAN_ANOMALY": 163.1511, "EPHEMERIS_TYPE": 0, "CLASSIFICATION_TYPE": "U", "NORAD_CAT_ID": 28659, "ELEMENT_SET_NO": 999, "REV_AT_EPOCH": 7520, "BSTAR": 0, "MEAN_MOTION_DOT": 1.5e-07, "MEAN_MOTION_DDOT": 0}, "tle": {"line1": "1 28659U 05019A   25347.29820672  .00000015  00000+0  00000+0 0  9996", "line2": "2 28659   0.0229  66.6292 0002988 200.7634 163.1511  1.00271994 75200"}}, "geometry": {"type": "Point", "coordinates": [-56.28908547645009, -0.022692217251168375]}}, {"type": "Feature", "properties": {"norad_id": 28702, "name": "GALAXY 28 (G-28)", "group": "intelsat", "lat": -2.697649138747407, "lon": -25.93944374445342, "alt_km": 35782.11679772194, "timestamp": "2025-12-13T22:39:29.376004+00:00", "meta": {"OBJECT_NAME": "GALAXY 28 (G-28)", "OBJECT_ID": "2005-022A", "EPOCH": "2025-12-13T06:38:38.641632", "MEAN_MOTION": 1.00271727, "ECCENTRICITY": 0.00028187, "INCLINATION": 2.8202, "RA_OF_ASC_NODE": 81.2761, "ARG_OF_PERICENTER": 184.3592, "MEAN_ANOMALY": 187.55, "EPHEMERIS_TYPE": 0, "CLASSIFICATION_TYPE": "U", "NORAD_CAT_ID": 28702, "ELEMENT_SET_NO": 999, "REV_AT_EPOCH": 5011, "BSTAR": 0, "MEAN_MOTION_DOT": -1.74e-06, "MEAN_MOTION_DDOT": 0}, "tle": {"line1": "1 28702U 05022A   25347.27683613 -.00000174  00000+0  00000+0 0  9996", "line2": "2 28702   2.8202  81.2761 0002818 184.3592 187.5500  1.00271727 50111"}}, "geometry": {"type": "Point", "coordinates": [-25.93944374445342, -2.697649138747407]}}, {"type": "Feature", "properties": {"norad_id": 29236, "name": "GALAXY 16 (G-16)", "group": "intelsat", "lat": -0.017786601902027535, "lon": -36.24245543875157, "alt_km": 35780.9360217475, "timestamp": "2025-12-13T22:39:29.376016+00:00", "meta": {"OBJECT_NAME": "GALAXY 16 (G-16)", "OBJECT_ID": "2006-023A", "EPOCH": "2025-12-13T07:06:14.793984", "MEAN_MOTION": 1.00272354, "ECCENTRICITY": 0.0002596, "INCLINATION": 0.0524, "RA_OF_ASC_NODE": 135.2976, "ARG_OF_PERICENTER": 125.5592, "MEAN_ANOMALY": 188.9317, "EPHEMERIS_TYPE": 0, "CLASSIFICATION_TYPE": "U", "NORAD_CAT_ID": 29236, "ELEMENT_SET_NO": 999, "REV_AT_EPOCH": 7110, "BSTAR": 0, "MEAN_MOTION_DOT": -1.13e-06, "MEAN_MOTION_DDOT": 0}, "tle": {"line1": "1 29236U 06023A   25347.29600456 -.00000113  00000+0  00000+0 0  9990", "line2": "2 29236   0.0524 135.2976 0002596 125.5592 188.9317  1.00272354 71109"}}, "geometry": {"type": "Point", "coordinates": [-36.24245543875157, -0.017786601902027535]}}, {"type": "Feature", "properties": {"norad_id": 29494, "name": "DIRECTV 9S", "group": "intelsat", "lat": -1.6599604797680307, "lon": -38.46204537560043, "alt_km": 35779.22863161189, "timestamp": "2025-12-13T22:39:29.376028+00:00", "meta": {"OBJECT_NAME": "DIRECTV 9S", "OBJECT_ID": "2006-043A", "EPOCH": "2025-12-13T07:06:38.794176", "MEAN_MOTION": 1.0027191, "ECCENTRICITY": 0.00029661, "INCLINATION": 1.9418, "RA_OF_ASC_NODE": 83.2052, "ARG_OF_PERICENTER": 182.5376, "MEAN_ANOMALY": 181.9374, "EPHEMERIS_TYPE": 0, "CLASSIFICATION_TYPE": "U", "NORAD_CAT_ID": 29494, "ELEMENT_SET_NO": 999, "REV_AT_EPOCH": 4952, "BSTAR": 0, "MEAN_MOTION_DOT": -1e-06, "MEAN_MOTION_DDOT": 0}, "tle": {"line1": "1 29494U 06043A   25347.29628234 -.00000100  00000+0  00000+0 0  9998", "line2": "2 29494   1.9418  83.2052 0002966 182.5376 181.9374  1.00271910 49522"}}, "geometry": {"type": "Point", "coordinates": [-38.46204537560043, -1.6599604797680307]}}, {"type": "Feature", "properties": {"norad_id": 31307, "name": "GALAXY 17 (G-17)", "group": "intelsat", "lat": -2.424384394749003, "lon": -22.188951255921086, "alt_km": 35786.48186590582, "timestamp": "2025-12-13T22:39:29.376039+00:00", "meta": {"OBJECT_NAME": "GALAXY 17 (G-17)", "OBJECT_ID": "2007-016B", "EPOCH": "2025-12-13T04:29:08.293056", "MEAN_MOTION": 1.00272443, "ECCENTRICITY": 0.00057852, "INCLINATION": 2.5014, "RA_OF_ASC_NODE": 82.2803, "ARG_OF_PERICENTER": 164.913, "MEAN_ANOMALY": 177.2332, "EPHEMERIS_TYPE": 0, "CLASSIFICATION_TYPE": "U", "NORAD_CAT_ID": 31307, "ELEMENT_SET_NO": 999, "REV_AT_EPOCH": 6793, "BSTAR": 0, "MEAN_MOTION_DOT": -1.93e-06, "MEAN_MOTION_DDOT": 0}, "tle": {"line1": "1 31307U 07016B   25347.18690154 -.00000193  00000+0  00000+0 0  9995", "line2": "2 31307   2.5014  82.2803 0005785 164.9130 177.2332  1.00272443 67933"}}, "geometry": {"type": "Point", "coordinates": [-22.188951255921086, -2.424384394749003]}}, {"type": "Feature", "properties": {"norad_id": 31862, "name": "DIRECTV 10", "group": "intelsat", "lat": 0.0017440845941438326, "lon": -40.05084352785293, "alt_km": 35786.53451961303, "timestamp": "2025-12-13T22:39:29.376051+00:00", "meta": {"OBJECT_NAME": "DIRECTV 10", "OBJECT_ID": "2007-032A", "EPOCH": "2025-12-12T23:15:53.301024", "MEAN_MOTION": 1.0027112, "ECCENTRICITY": 2.941e-05, "INCLINATION": 0.0079, "RA_OF_ASC_NODE": 209.5146, "ARG_OF_PERICENTER": 8.2783, "MEAN_ANOMALY": 110.3026, "EPHEMERIS_TYPE": 0, "CLASSIFICATION_TYPE": "U", "NORAD_CAT_ID": 31862, "ELEMENT_SET_NO": 999, "REV_AT_EPOCH": 4372, "BSTAR": 0, "MEAN_MOTION_DOT": -9e-07, "MEAN_MOTION_DDOT": 0}, "tle": {"line1": "1 31862U 07032A   25346.96936691 -.00000090  00000+0  00000+0 0  9999", "line2": "2 31862   0.0079 209.5146 0000294   8.2783 110.3026  1.00271120 43721"}}, "geometry": {"type": "Point", "coordinates": [-40.05084352785293, 0.0017440845941438326]}}, {"type": "Feature", "properties": {"norad_id": 32253, "name": "INTELSAT 11 (IS-11)", "group": "intelsat", "lat": -1.1823016326099476, "lon": -76.85916498488784, "alt_km": 36101.95688326974, "timestamp": "2025-12-13T22:39:29.376063+00:00", "meta": {"OBJECT_NAME": "INTELSAT 11 (IS-11)", "OBJECT_ID": "2007-044B", "EPOCH": "2025-12-13T04:13:38.758656", "MEAN_MOTION": 0.99048956, "ECCENTRICITY": 0.00088413, "INCLINATION": 3.0815, "RA_OF_ASC_NODE": 80.972, "ARG_OF_PERICENTER": 166.082, "MEAN_ANOMALY": 122.2227, "EPHEMERIS_TYPE": 0, "CLASSIFICATION_TYPE": "U", "NORAD_CAT_ID": 32253, "ELEMENT_SET_NO": 999, "REV_AT_EPOCH": 6660, "BSTAR": 0, "MEAN_MOTION_DOT": 7.7e-07, "MEAN_MOTION_DDOT": 0}, "tle": {"line1": "1 32253U 07044B   25347.17614304  .00000077  00000+0  00000+0 0  9999", "line2": "2 32253   3.0815  80.9720 0008841 166.0820 122.2227  0.99048956 66600"}}, "geometry": {"type": "Point", "coordinates": [-76.85916498488784, -1.1823016326099476]}}, {"type": "Feature", "properties": {"norad_id": 32388, "name": "HORIZONS-2", "group": "intelsat", "lat": -2.115583573085049, "lon": -11.020499620495654, "alt_km": 35781.87277212625, "timestamp": "2025-12-13T22:39:29.376075+00:00", "meta": {"OBJECT_NAME": "HORIZONS-2", "OBJECT_ID": "2007-063B", "EPOCH": "2025-12-13T04:32:15.494208", "MEAN_MOTION": 1.00269759, "ECCENTRICITY": 0.00048699, "INCLINATION": 2.1228, "RA_OF_ASC_NODE": 82.9566, "ARG_OF_PERICENTER": 190.5254, "MEAN_ANOMALY": 162.905, "EPHEMERIS_TYPE": 0, "CLASSIFICATION_TYPE": "U", "NORAD_CAT_ID": 32388, "ELEMENT_SET_NO": 999, "REV_AT_EPOCH": 6594, "BSTAR": 0, "MEAN_MOTION_DOT": -2.4e-06, "MEAN_MOTION_DDOT": 0}, "tle": {"line1": "1 32388U 07063B   25347.18906822 -.00000240  00000+0  00000+0 0  9992", "line2": "2 32388   2.1228  82.9566 0004869 190.5254 162.9050  1.00269759 65946"}}, "geometry": {"type": "Point", "coordinates": [-11.020499620495654, -2.115583573085049]}}, {"type": "Feature", "properties": {"norad_id": 32729, "name": "DIRECTV 11", "group": "intelsat", "lat": 0.0006320096995889183, "lon": -36.45743791359249, "alt_km": 35787.2148754638, "timestamp": "2025-12-13T22:39:29.376087+00:00", "meta": {"OBJECT_NAME": "DIRECTV 11", "OBJECT_ID": "2008-013A", "EPOCH": "2025-12-12T21:34:07.285152", "MEAN_MOTION": 1.00271941, "ECCENTRICITY": 2.766e-05, "INCLINATION": 0.0293, "RA_OF_ASC_NODE": 167.0626, "ARG_OF_PERICENTER": 342.976, "MEAN_ANOMALY": 156.139, "EPHEMERIS_TYPE": 0, "CLASSIFICATION_TYPE": "U", "NORAD_CAT_ID": 32729, "ELEMENT_SET_NO": 999, "REV_AT_EPOCH": 4372, "BSTAR": 0, "MEAN_MOTION_DOT": -1.13e-06, "MEAN_MOTION_DDOT": 0}, "tle": {"line1": "1 32729U 08013A   25346.89869543 -.00000113  00000+0  00000+0 0  9991", "line2": "2 32729   0.0293 167.0626 0000276 342.9760 156.1390  1.00271941 43729"}}, "geometry": {"type": "Point", "coordinates": [-36.45743791359249, 0.0006320096995889183]}}, {"type": "Feature", "properties": {"norad_id": 32951, "name": "GALAXY 18 (G-18)", "group": "intelsat", "lat": -0.004943471431279899, "lon": -60.2583167408499, "alt_km": 35775.58285427218, "timestamp": "2025-12-13T22:39:29.376099+00:00", "meta": {"OBJECT_NAME": "GALAXY 18 (G-18)", "OBJECT_ID": "2008-024A", "EPOCH": "2025-12-13T04:05:38.557824", "MEAN_MOTION": 1.00271847, "ECCENTRICITY": 0.00028838, "INCLINATION": 0.0022, "RA_OF_ASC_NODE": 55.4008, "ARG_OF_PERICENTER": 213.196, "MEAN_ANOMALY": 111.9115, "EPHEMERIS_TYPE": 0, "CLASSIFICATION_TYPE": "U", "NORAD_CAT_ID": 32951, "ELEMENT_SET_NO": 999, "REV_AT_EPOCH": 4398, "BSTAR": 0, "MEAN_MOTION_DOT": 3.9e-07, "MEAN_MOTION_DDOT": 0}, "tle": {"line1": "1 32951U 08024A   25347.17058516  .00000039  00000+0  00000+0 0  9998", "line2": "2 32951   0.0022  55.4008 0002883 213.1960 111.9115  1.00271847 43984"}}, "geometry": {"type": "Point", "coordinates": [-60.2583167408499, -0.004943471431279899]}}]}